KUIPER-00079            
1 64826U 25151L   25210.21642473  .00012462  00000+0  36224-3 0  9993
2 64826  51.8776 225.1539 0005948 176.8270 183.2754 15.35825999  3184
KUIPER-00080            
1 64827U 25151M   25210.21883340  .00023514  00000+0  67885-3 0  9991
2 64827  51.8781 225.1724 0004905 186.9360 173.1559 15.35550672  1981
KUIPER-00082            
1 64828U 25151N   25209.76237787  .00011596  00000+0  33994-3 0  9999
2 64828  51.8776 227.3580 0005368 180.8516 179.2462 15.35632698  1912
KUIPER-00083            
1 64829U 25151P   25210.35100072  .00003742  00000+0  11844-3 0  9997
2 64829  51.8776 224.5536 0006106 198.3238 161.7528 15.35300910  3199
KUIPER-00084            
1 64830U 25151Q   25210.09241621  .00869551  00000+0  22823-1 0  9991
2 64830  51.8784 225.8222 0004491 241.6899 118.3634 15.35520598  1961
KUIPER-00085            
1 64831U 25151R   25210.47696540  .00020376  00000+0  58514-3 0  9990
2 64831  51.8775 223.8996 0005722 178.2660 181.8347 15.35804882  2022
KUIPER-00086            
1 64832U 25151S   25210.48249085  .00027148  00000+0  79309-3 0  9999
2 64832  51.8773 223.9337 0005393 203.4541 156.6199 15.35094192  2013
KUIPER-00087            
1 64833U 25151T   25210.21835972  .00019091  00000+0  55409-3 0  9990
2 64833  51.8779 225.1676 0005302 179.1863 180.9133 15.35516866  1986
